FALCONSAT-6             
1 43815U 18099BK  26068.72544389  .00005029  00000+0  19477-3 0  9998
2 43815  97.3865 145.8165 0014370 297.0944 181.0714 15.26532865398556
STARLINK-35223          
1 65494U 25198C   26068.84726175  .00023238  00000+0  79442-3 0  9991
2 65494  53.1573 270.3053 0000987  89.3685 270.7429 15.30193495 28648
